CCSDS_OMM_VERS = 2.0
CREATION_DATE  = 
ORIGINATOR     = 

OBJECT_NAME    = DELTA 2 R/B(1)
OBJECT_ID      = 1990-008B
CENTER_NAME    = EARTH
REF_FRAME      = TEME
TIME_SYSTEM    = UTC
MEAN_ELEMENT_THEORY = SGP/SGP4

EPOCH          = 2026-01-16T02:04:09.246432
MEAN_MOTION    = 15.48677060
ECCENTRICITY   = .01019415
INCLINATION    = 35.6041
RA_OF_ASC_NODE = 158.1772
ARG_OF_PERICENTER = 132.0876
MEAN_ANOMALY   = 228.8580

EPHEMERIS_TYPE = 0
CLASSIFICATION_TYPE = U
NORAD_CAT_ID   = 20453
ELEMENT_SET_NO = 999
REV_AT_EPOCH   = 91795
BSTAR          = .59448097E-3
MEAN_MOTION_DOT = .407E-3
MEAN_MOTION_DDOT = 0

CCSDS_OMM_VERS = 2.0
CREATION_DATE  = 
ORIGINATOR     = 

OBJECT_NAME    = COSMOS 2058
OBJECT_ID      = 1990-010A
CENTER_NAME    = EARTH
REF_FRAME      = TEME
TIME_SYSTEM    = UTC
MEAN_ELEMENT_THEORY = SGP/SGP4

EPOCH          = 2026-01-16T04:50:44.141856
MEAN_MOTION    = 15.10814355
ECCENTRICITY   = .0010523
INCLINATION    = 82.4684
RA_OF_ASC_NODE = 99.1302
ARG_OF_PERICENTER = 149.3290
MEAN_ANOMALY   = 210.8557

EPHEMERIS_TYPE = 0
CLASSIFICATION_TYPE = U
NORAD_CAT_ID   = 20465
ELEMENT_SET_NO = 999
REV_AT_EPOCH   = 93431
BSTAR          = .11785353E-3
MEAN_MOTION_DOT = .1989E-4
MEAN_MOTION_DDOT = 0

CCSDS_OMM_VERS = 2.0
CREATION_DATE  = 
ORIGINATOR     = 

OBJECT_NAME    = SL-14 R/B
OBJECT_ID      = 1990-010B
CENTER_NAME    = EARTH
REF_FRAME      = TEME
TIME_SYSTEM    = UTC
MEAN_ELEMENT_THEORY = SGP/SGP4

EPOCH          = 2026-01-16T06:43:13.984608
MEAN_MOTION    = 14.83509997
ECCENTRICITY   = .00212967
INCLINATION    = 82.5044
RA_OF_ASC_NODE = 316.6098
ARG_OF_PERICENTER = 110.8298
MEAN_ANOMALY   = 249.5200

EPHEMERIS_TYPE = 0
CLASSIFICATION_TYPE = U
NORAD_CAT_ID   = 20466
ELEMENT_SET_NO = 999
REV_AT_EPOCH   = 92071
BSTAR          = .40232299E-4
MEAN_MOTION_DOT = .356E-5
MEAN_MOTION_DDOT = 0

CCSDS_OMM_VERS = 2.0
CREATION_DATE  = 
ORIGINATOR     = 

OBJECT_NAME    = SL-14 R/B
OBJECT_ID      = 1990-018B
CENTER_NAME    = EARTH
REF_FRAME      = TEME
TIME_SYSTEM    = UTC
MEAN_ELEMENT_THEORY = SGP/SGP4

EPOCH          = 2026-01-16T05:56:05.693568
MEAN_MOTION    = 14.82086529
ECCENTRICITY   = .0014886
INCLINATION    = 82.5211
RA_OF_ASC_NODE = 272.1154
ARG_OF_PERICENTER = 264.5451
MEAN_ANOMALY   = 95.4066

EPHEMERIS_TYPE = 0
CLASSIFICATION_TYPE = U
NORAD_CAT_ID   = 20511
ELEMENT_SET_NO = 999
REV_AT_EPOCH   = 91481
BSTAR          = .36511582E-4
MEAN_MOTION_DOT = .314E-5
MEAN_MOTION_DDOT = 0

CCSDS_OMM_VERS = 2.0
CREATION_DATE  = 
ORIGINATOR     = 

OBJECT_NAME    = HST
OBJECT_ID      = 1990-037B
CENTER_NAME    = EARTH
REF_FRAME      = TEME
TIME_SYSTEM    = UTC
MEAN_ELEMENT_THEORY = SGP/SGP4

EPOCH          = 2026-01-16T08:04:00.805152
MEAN_MOTION    = 15.28551886
ECCENTRICITY   = .00017886
INCLINATION    = 28.4678
RA_OF_ASC_NODE = 36.9088
ARG_OF_PERICENTER = 242.6076
MEAN_ANOMALY   = 117.4337

EPHEMERIS_TYPE = 0
CLASSIFICATION_TYPE = U
NORAD_CAT_ID   = 20580
ELEMENT_SET_NO = 999
REV_AT_EPOCH   = 76529
BSTAR          = .18676731E-3
MEAN_MOTION_DOT = .5564E-4
MEAN_MOTION_DDOT = 0

CCSDS_OMM_VERS = 2.0
CREATION_DATE  = 
ORIGINATOR     = 

OBJECT_NAME    = SL-16 R/B
OBJECT_ID      = 1990-046B
CENTER_NAME    = EARTH
REF_FRAME      = TEME
TIME_SYSTEM    = UTC
MEAN_ELEMENT_THEORY = SGP/SGP4

EPOCH          = 2026-01-16T05:51:03.188160
MEAN_MOTION    = 14.15007840
ECCENTRICITY   = .00134666
INCLINATION    = 70.9996
RA_OF_ASC_NODE = 48.0583
ARG_OF_PERICENTER = 14.3348
MEAN_ANOMALY   = 345.8154

EPHEMERIS_TYPE = 0
CLASSIFICATION_TYPE = U
NORAD_CAT_ID   = 20625
ELEMENT_SET_NO = 999
REV_AT_EPOCH   = 84097
BSTAR          = .34527874E-4
MEAN_MOTION_DOT = .19E-6
MEAN_MOTION_DDOT = 0

CCSDS_OMM_VERS = 2.0
CREATION_DATE  = 
ORIGINATOR     = 

OBJECT_NAME    = COSMOS 2084
OBJECT_ID      = 1990-055A
CENTER_NAME    = EARTH
REF_FRAME      = TEME
TIME_SYSTEM    = UTC
MEAN_ELEMENT_THEORY = SGP/SGP4

EPOCH          = 2026-01-16T02:46:07.979232
MEAN_MOTION    = 15.05257997
ECCENTRICITY   = .00258679
INCLINATION    = 62.7894
RA_OF_ASC_NODE = 154.8417
ARG_OF_PERICENTER = 179.8558
MEAN_ANOMALY   = 180.2554

EPHEMERIS_TYPE = 0
CLASSIFICATION_TYPE = U
NORAD_CAT_ID   = 20663
ELEMENT_SET_NO = 999
REV_AT_EPOCH   = 92840
BSTAR          = .15273124E-3
MEAN_MOTION_DOT = .2003E-4
MEAN_MOTION_DDOT = 0

CCSDS_OMM_VERS = 2.0
CREATION_DATE  = 
ORIGINATOR     = 

OBJECT_NAME    = SL-6 R/B(2)
OBJECT_ID      = 1990-055D
CENTER_NAME    = EARTH
REF_FRAME      = TEME
TIME_SYSTEM    = UTC
MEAN_ELEMENT_THEORY = SGP/SGP4

EPOCH          = 2026-01-16T05:26:31.671744
MEAN_MOTION    = 15.03267957
ECCENTRICITY   = .00171203
INCLINATION    = 62.7823
RA_OF_ASC_NODE = 72.2173
ARG_OF_PERICENTER = 329.3316
MEAN_ANOMALY   = 30.6781

EPHEMERIS_TYPE = 0
CLASSIFICATION_TYPE = U
NORAD_CAT_ID   = 20666
ELEMENT_SET_NO = 999
REV_AT_EPOCH   = 93030
BSTAR          = .11663886E-3
MEAN_MOTION_DOT = .1393E-4
MEAN_MOTION_DDOT = 0

CCSDS_OMM_VERS = 2.0
CREATION_DATE  = 
ORIGINATOR     = 

OBJECT_NAME    = SL-8 R/B
OBJECT_ID      = 1990-078B
CENTER_NAME    = EARTH
REF_FRAME      = TEME
TIME_SYSTEM    = UTC
MEAN_ELEMENT_THEORY = SGP/SGP4

EPOCH          = 2026-01-16T04:41:11.340096
MEAN_MOTION    = 14.87109365
ECCENTRICITY   = .03688365
INCLINATION    = 82.9063
RA_OF_ASC_NODE = 298.4445
ARG_OF_PERICENTER = 189.9065
MEAN_ANOMALY   = 169.4750

EPHEMERIS_TYPE = 0
CLASSIFICATION_TYPE = U
NORAD_CAT_ID   = 20775
ELEMENT_SET_NO = 999
REV_AT_EPOCH   = 80149
BSTAR          = .36481343E-3
MEAN_MOTION_DOT = .12066E-3
MEAN_MOTION_DDOT = 0

CCSDS_OMM_VERS = 2.0
CREATION_DATE  = 
ORIGINATOR     = 

OBJECT_NAME    = SL-8 R/B
OBJECT_ID      = 1991-006B
CENTER_NAME    = EARTH
REF_FRAME      = TEME
TIME_SYSTEM    = UTC
MEAN_ELEMENT_THEORY = SGP/SGP4

EPOCH          = 2026-01-16T06:37:11.389728
MEAN_MOTION    = 13.77492109
ECCENTRICITY   = .00224373
INCLINATION    = 82.9407
RA_OF_ASC_NODE = 209.0221
ARG_OF_PERICENTER = 179.0954
MEAN_ANOMALY   = 353.8691

EPHEMERIS_TYPE = 0
CLASSIFICATION_TYPE = U
NORAD_CAT_ID   = 21088
ELEMENT_SET_NO = 999
REV_AT_EPOCH   = 75685
BSTAR          = -.35306411E-4
MEAN_MOTION_DOT = -.2E-6
MEAN_MOTION_DDOT = 0

CCSDS_OMM_VERS = 2.0
CREATION_DATE  = 
ORIGINATOR     = 

OBJECT_NAME    = OKEAN-3
OBJECT_ID      = 1991-039A
CENTER_NAME    = EARTH
REF_FRAME      = TEME
TIME_SYSTEM    = UTC
MEAN_ELEMENT_THEORY = SGP/SGP4

EPOCH          = 2026-01-16T06:33:02.201760
MEAN_MOTION    = 15.04351938
ECCENTRICITY   = .00156819
INCLINATION    = 82.5152
RA_OF_ASC_NODE = 27.6104
ARG_OF_PERICENTER = 143.1597
MEAN_ANOMALY   = 217.0710

EPHEMERIS_TYPE = 0
CLASSIFICATION_TYPE = U
NORAD_CAT_ID   = 21397
ELEMENT_SET_NO = 999
REV_AT_EPOCH   = 85715
BSTAR          = .11419028E-3
MEAN_MOTION_DOT = .1624E-4
MEAN_MOTION_DDOT = 0

CCSDS_OMM_VERS = 2.0
CREATION_DATE  = 
ORIGINATOR     = 

OBJECT_NAME    = COSMOS 2151
OBJECT_ID      = 1991-042A
CENTER_NAME    = EARTH
REF_FRAME      = TEME
TIME_SYSTEM    = UTC
MEAN_ELEMENT_THEORY = SGP/SGP4

EPOCH          = 2026-01-16T07:36:25.011360
MEAN_MOTION    = 14.99852097
ECCENTRICITY   = .00114822
INCLINATION    = 82.4984
RA_OF_ASC_NODE = 134.1808
ARG_OF_PERICENTER = 232.5708
MEAN_ANOMALY   = 127.4472

EPHEMERIS_TYPE = 0
CLASSIFICATION_TYPE = U
NORAD_CAT_ID   = 21422
ELEMENT_SET_NO = 999
REV_AT_EPOCH   = 85534
BSTAR          = .12245011E-3
MEAN_MOTION_DOT = .1545E-4
MEAN_MOTION_DDOT = 0

