DELTA 2 R/B(1)          
1 20453U 90008B   26016.08621813  .00040700  00000+0  59448-3 0  9998
2 20453  35.6041 158.1772 0101941 132.0876 228.8580 15.48677060917957
COSMOS 2058             
1 20465U 90010A   26016.20189979  .00001989  00000+0  11785-3 0  9998
2 20465  82.4684  99.1302 0010523 149.3290 210.8557 15.10814355934315
SL-14 R/B               
1 20466U 90010B   26016.28002297  .00000356  00000+0  40232-4 0  9991
2 20466  82.5044 316.6098 0021296 110.8298 249.5200 14.83509997920711
SL-14 R/B               
1 20511U 90018B   26016.24728812  .00000314  00000+0  36512-4 0  9994
2 20511  82.5211 272.1154 0014886 264.5451  95.4066 14.82086529914814
HST                     
1 20580U 90037B   26016.33612043  .00005564  00000+0  18677-3 0  9992
2 20580  28.4678  36.9088 0001788 242.6076 117.4337 15.28551886765291
SL-16 R/B               
1 20625U 90046B   26016.24378690  .00000019  00000+0  34528-4 0  9993
2 20625  70.9996  48.0583 0013466  14.3348 345.8154 14.15007840840976
COSMOS 2084             
1 20663U 90055A   26016.11537013  .00002003  00000+0  15273-3 0  9997
2 20663  62.7894 154.8417 0025867 179.8558 180.2554 15.05257997928404
SL-6 R/B(2)             
1 20666U 90055D   26016.22675546  .00001393  00000+0  11664-3 0  9997
2 20666  62.7823  72.2173 0017120 329.3316  30.6781 15.03267957930305
SL-8 R/B                
1 20775U 90078B   26016.19527014  .00012066  00000+0  36481-3 0  9998
2 20775  82.9063 298.4445 0368836 189.9065 169.4750 14.87109365801497
SL-8 R/B                
1 21088U 91006B   26016.27582627 -.00000020  00000+0 -35306-4 0  9993
2 21088  82.9407 209.0221 0022437 179.0954 353.8691 13.77492109756859
OKEAN-3                 
1 21397U 91039A   26016.27294215  .00001624  00000+0  11419-3 0  9992
2 21397  82.5152  27.6104 0015681 143.1597 217.0710 15.04351938857151
COSMOS 2151             
1 21422U 91042A   26016.31695615  .00001545  00000+0  12245-3 0  9999
2 21422  82.4984 134.1808 0011482 232.5708 127.4472 14.99852097855342
